[{"OBJECT_NAME":"STARLINK-4439","OBJECT_ID":"2022-099AK","EPOCH":"2026-03-09T22:22:49.209600","MEAN_MOTION":15.05646138,"ECCENTRICITY":9.779e-5,"INCLINATION":97.6028,"RA_OF_ASC_NODE":191.4074,"ARG_OF_PERICENTER":97.2398,"MEAN_ANOMALY":262.894,"EPHEMERIS_TYPE":0,"CLASSIFICATION_TYPE":"U","NORAD_CAT_ID":53498,"ELEMENT_SET_NO":999,"REV_AT_EPOCH":19608,"BSTAR":2.6099669e-5,"MEAN_MOTION_DOT":3.16e-6,"MEAN_MOTION_DDOT":0},{"OBJECT_NAME":"FENGYUN 1C DEB","OBJECT_ID":"1999-025EMJ","EPOCH":"2026-03-09T03:39:09.279936","MEAN_MOTION":15.01174269,"ECCENTRICITY":0.00472088,"INCLINATION":98.7318,"RA_OF_ASC_NODE":38.98,"ARG_OF_PERICENTER":180.721,"MEAN_ANOMALY":242.109,"EPHEMERIS_TYPE":0,"CLASSIFICATION_TYPE":"U","NORAD_CAT_ID":37717,"ELEMENT_SET_NO":999,"REV_AT_EPOCH":90691,"BSTAR":0.0034859906,"MEAN_MOTION_DOT":0.00045969,"MEAN_MOTION_DDOT":0}]
